[{"OBJECT_NAME":"STARLINK-1995","OBJECT_ID":"2021-009AU","EPOCH":"2026-03-09T22:00:01.999584","MEAN_MOTION":15.56337819,"ECCENTRICITY":0.00072287,"INCLINATION":53.0479,"RA_OF_ASC_NODE":18.2943,"ARG_OF_PERICENTER":82.4269,"MEAN_ANOMALY":357.8664,"EPHEMERIS_TYPE":0,"CLASSIFICATION_TYPE":"U","NORAD_CAT_ID":47590,"ELEMENT_SET_NO":999,"REV_AT_EPOCH":586,"BSTAR":0.0018767975,"MEAN_MOTION_DOT":0.00136547,"MEAN_MOTION_DDOT":0},{"OBJECT_NAME":"FLOCK 4Q-25","OBJECT_ID":"2023-174AZ","EPOCH":"2026-03-09T17:21:45.287712","MEAN_MOTION":15.56567031,"ECCENTRICITY":0.00053011,"INCLINATION":97.3856,"RA_OF_ASC_NODE":158.7889,"ARG_OF_PERICENTER":135.0347,"MEAN_ANOMALY":225.1339,"EPHEMERIS_TYPE":0,"CLASSIFICATION_TYPE":"U","NORAD_CAT_ID":58303,"ELEMENT_SET_NO":999,"REV_AT_EPOCH":13047,"BSTAR":0.00071767971,"MEAN_MOTION_DOT":0.00051136,"MEAN_MOTION_DDOT":0}]
